ORBCOMM FM05 [-]        
1 25117U 97084F   24006.37415067  .00001666  00000+0  54698-3 0  9992
2 25117  45.0180  13.9601 0000592  35.2932 324.7957 14.41957829364321
ORBCOMM FM06 [+]        
1 25118U 97084G   24006.06175120  .00001743  00000+0  57045-3 0  9997
2 25118  45.0170  15.6284 0000461 282.6134 105.9888 14.41931009365194
ORBCOMM FM07 [-]        
1 25119U 97084H   24006.04127479  .00001681  00000+0  55251-3 0  9998
2 25119  45.0169  16.1991 0001379  37.2098 322.8847 14.41870019365183
ORBCOMM FM03 [-]        
1 25158U 98007B   24006.26011936  .00001319  00000+0  53711-3 0  9998
2 25158 107.9738 133.3861 0045144  91.1906 269.4405 14.31671029348411
ORBCOMM FM04 [+]        
1 25159U 98007C   24006.27115307  .00001144  00000+0  47099-3 0  9995
2 25159 107.9724 136.2618 0040593  88.9783 271.6005 14.31928268348588
ORBCOMM FM17 [-]        
1 25413U 98046A   24005.99304431  .00000744  00000+0  32252-3 0  9997
2 25413  44.9938 225.4536 0002512  80.9574 279.1557 14.32667830327361
ORBCOMM FM18 [-]        
1 25414U 98046B   24006.36132093  .00001294  00000+0  49648-3 0  9991
2 25414  44.9931 153.3941 0005086 157.2126 202.8947 14.35273985328335
ORBCOMM FM19 [+]        
1 25415U 98046C   24006.46153751  .00001255  00000+0  48453-3 0  9997
2 25415  44.9939 154.1683 0003832 151.1413 255.4265 14.35128333328316
